{"type": "FeatureCollection", "features": [ {"type": "Feature", "properties": {"norad_id": 31056, "name": "FENGYUN 1C DEB", "group": "fengyun-1c-debris", "lat": 66.55682048496159, "lon": -176.96226071262444, "alt_km": 855.7144468483748, "timestamp": "2025-12-26T06:43:29.791976+00:00", "meta": {"OBJECT_NAME": "FENGYUN 1C DEB", "OBJECT_ID": "1999-025BFA", "EPOCH": "2025-12-25T10:32:12.350112", "MEAN_MOTION": 14.14323282, "ECCENTRICITY": 0.0024921, "INCLINATION": 98.6692, "RA_OF_ASC_NODE": 341.6218, "ARG_OF_PERICENTER": 306.022, "MEAN_ANOMALY": 205.2538, "EPHEMERIS_TYPE": 0, "CLASSIFICATION_TYPE": "U", "NORAD_CAT_ID": 31056, "ELEMENT_SET_NO": 999, "REV_AT_EPOCH": 96997, "BSTAR": 0.00035939, "MEAN_MOTION_DOT": 6.46e-06, "MEAN_MOTION_DDOT": 0}, "tle": {"line1": "1 31056U 99025BFA 25359.43903183  .00000646  00000+0  35939-3 0  9992", "line2": "2 31056  98.6692 341.6218 0024921 306.0220 205.2538 14.14323282969978"}}, "geometry": {"type": "Point", "coordinates": [-176.96226071262444, 66.55682048496159]}}, {"type": "Feature", "properties": {"norad_id": 31057, "name": "FENGYUN 1C DEB", "group": "fengyun-1c-debris", "lat": -63.1210813183804, "lon": 60.51112022610309, "alt_km": 629.6441578021158, "timestamp": "2025-12-26T06:43:29.791986+00:00", "meta": {"OBJECT_NAME": "FENGYUN 1C DEB", "OBJECT_ID": "1999-025BFB", "EPOCH": "2025-12-23T20:35:18.344544", "MEAN_MOTION": 14.79509399, "ECCENTRICITY": 0.01376332, "INCLINATION": 99.2549, "RA_OF_ASC_NODE": 38.9584, "ARG_OF_PERICENTER": 217.07, "MEAN_ANOMALY": 142.094, "EPHEMERIS_TYPE": 0, "CLASSIFICATION_TYPE": "U", "NORAD_CAT_ID": 31057, "ELEMENT_SET_NO": 999, "REV_AT_EPOCH": 62117, "BSTAR": 0.0010448205, "MEAN_MOTION_DOT": 9.107e-05, "MEAN_MOTION_DDOT": 0}, "tle": {"line1": "1 31057U 99025BFB 25357.85785121  .00009107  00000+0  10448-2 0  9995", "line2": "2 31057  99.2549  38.9584 0137633 217.0700 142.0940 14.79509399621176"}}, "geometry": {"type": "Point", "coordinates": [60.51112022610309, -63.1210813183804]}}, {"type": "Feature", "properties": {"norad_id": 31058, "name": "FENGYUN 1C DEB", "group": "fengyun-1c-debris", "lat": -47.856879811882166, "lon": -37.22281575659193, "alt_km": 673.2273951399911, "timestamp": "2025-12-26T06:43:29.791996+00:00", "meta": {"OBJECT_NAME": "FENGYUN 1C DEB", "OBJECT_ID": "1999-025BFC", "EPOCH": "2025-12-21T14:43:24.738528", "MEAN_MOTION": 14.76461843, "ECCENTRICITY": 0.00952203, "INCLINATION": 99.5682, "RA_OF_ASC_NODE": 306.5125, "ARG_OF_PERICENTER": 79.2038, "MEAN_ANOMALY": 281.9867, "EPHEMERIS_TYPE": 0, "CLASSIFICATION_TYPE": "U", "NORAD_CAT_ID": 31058, "ELEMENT_SET_NO": 999, "REV_AT_EPOCH": 99680, "BSTAR": 0.0010269728, "MEAN_MOTION_DOT": 7.633e-05, "MEAN_MOTION_DDOT": 0}, "tle": {"line1": "1 31058U 99025BFC 25355.61348077  .00007633  00000+0  10270-2 0  9998", "line2": "2 31058  99.5682 306.5125 0095220  79.2038 281.9867 14.76461843996804"}}, "geometry": {"type": "Point", "coordinates": [-37.22281575659193, -47.856879811882166]}}, {"type": "Feature", "properties": {"norad_id": 31062, "name": "FENGYUN 1C DEB", "group": "fengyun-1c-debris", "lat": -73.17198191802217, "lon": -29.66590420742671, "alt_km": 872.7956571829645, "timestamp": "2025-12-26T06:43:29.792006+00:00", "meta": {"OBJECT_NAME": "FENGYUN 1C DEB", "OBJECT_ID": "1999-025BFG", "EPOCH": "2025-12-24T18:39:18.485856", "MEAN_MOTION": 13.75697758, "ECCENTRICITY": 0.01713774, "INCLINATION": 98.997, "RA_OF_ASC_NODE": 180.503, "ARG_OF_PERICENTER": 285.781, "MEAN_ANOMALY": 91.5783, "EPHEMERIS_TYPE": 0, "CLASSIFICATION_TYPE": "U", "NORAD_CAT_ID": 31062, "ELEMENT_SET_NO": 999, "REV_AT_EPOCH": 94399, "BSTAR": 0.00024224696, "MEAN_MOTION_DOT": 2.18e-06, "MEAN_MOTION_DDOT": 0}, "tle": {"line1": "1 31062U 99025BFG 25358.77729729  .00000218  00000+0  24225-3 0  9998", "line2": "2 31062  98.9970 180.5030 0171377 285.7810  91.5783 13.75697758943995"}}, "geometry": {"type": "Point", "coordinates": [-29.66590420742671, -73.17198191802217]}}, {"type": "Feature", "properties": {"norad_id": 31064, "name": "FENGYUN 1C DEB", "group": "fengyun-1c-debris", "lat": 29.697283359023643, "lon": 167.54316113868722, "alt_km": 988.2077448883538, "timestamp": "2025-12-26T06:43:29.792016+00:00", "meta": {"OBJECT_NAME": "FENGYUN 1C DEB", "OBJECT_ID": "1999-025BFJ", "EPOCH": "2025-12-25T04:44:59.881920", "MEAN_MOTION": 14.22163246, "ECCENTRICITY": 0.024077, "INCLINATION": 98.575, "RA_OF_ASC_NODE": 341.5529, "ARG_OF_PERICENTER": 325.4003, "MEAN_ANOMALY": 46.8485, "EPHEMERIS_TYPE": 0, "CLASSIFICATION_TYPE": "U", "NORAD_CAT_ID": 31064, "ELEMENT_SET_NO": 999, "REV_AT_EPOCH": 97432, "BSTAR": 0.00037871, "MEAN_MOTION_DOT": 1.078e-05, "MEAN_MOTION_DDOT": 0}, "tle": {"line1": "1 31064U 99025BFJ 25359.19791530  .00001078  00000+0  37871-3 0  9992", "line2": "2 31064  98.5750 341.5529 0240770 325.4003  46.8485 14.22163246974327"}}, "geometry": {"type": "Point", "coordinates": [167.54316113868722, 29.697283359023643]}}, {"type": "Feature", "properties": {"norad_id": 31065, "name": "FENGYUN 1C DEB", "group": "fengyun-1c-debris", "lat": 14.608373156190039, "lon": 16.75191964126571, "alt_km": 775.6463099016373, "timestamp": "2025-12-26T06:43:29.792026+00:00", "meta": {"OBJECT_NAME": "FENGYUN 1C DEB", "OBJECT_ID": "1999-025BFK", "EPOCH": "2025-12-24T07:34:42.003552", "MEAN_MOTION": 14.28222033, "ECCENTRICITY": 0.00346758, "INCLINATION": 98.4648, "RA_OF_ASC_NODE": 17.0717, "ARG_OF_PERICENTER": 357.2807, "MEAN_ANOMALY": 2.8181, "EPHEMERIS_TYPE": 0, "CLASSIFICATION_TYPE": "U", "NORAD_CAT_ID": 31065, "ELEMENT_SET_NO": 999, "REV_AT_EPOCH": 64743, "BSTAR": 0.00089045947, "MEAN_MOTION_DOT": 2.191e-05, "MEAN_MOTION_DDOT": 0}, "tle": {"line1": "1 31065U 99025BFK 25358.31576393  .00002191  00000+0  89046-3 0  9992", "line2": "2 31065  98.4648  17.0717 0034675 357.2807   2.8181 14.28222033647437"}}, "geometry": {"type": "Point", "coordinates": [16.75191964126571, 14.608373156190039]}}, {"type": "Feature", "properties": {"norad_id": 31068, "name": "FENGYUN 1C DEB", "group": "fengyun-1c-debris", "lat": -30.405740668862816, "lon": 156.77443720641733, "alt_km": 945.257682381929, "timestamp": "2025-12-26T06:43:29.792037+00:00", "meta": {"OBJECT_NAME": "FENGYUN 1C DEB", "OBJECT_ID": "1999-025BFN", "EPOCH": "2025-12-22T16:32:29.846976", "MEAN_MOTION": 14.09197133, "ECCENTRICITY": 0.01658935, "INCLINATION": 98.6305, "RA_OF_ASC_NODE": 338.4459, "ARG_OF_PERICENTER": 90.14, "MEAN_ANOMALY": 271.878, "EPHEMERIS_TYPE": 0, "CLASSIFICATION_TYPE": "U", "NORAD_CAT_ID": 31068, "ELEMENT_SET_NO": 999, "REV_AT_EPOCH": 96495, "BSTAR": 0.00015236444, "MEAN_MOTION_DOT": 2.6e-06, "MEAN_MOTION_DDOT": 0}, "tle": {"line1": "1 31068U 99025BFN 25356.68923434  .00000260  00000+0  15236-3 0  9990", "line2": "2 31068  98.6305 338.4459 0165893  90.1400 271.8780 14.09197133964957"}}, "geometry": {"type": "Point", "coordinates": [156.77443720641733, -30.405740668862816]}}, {"type": "Feature", "properties": {"norad_id": 31069, "name": "FENGYUN 1C DEB", "group": "fengyun-1c-debris", "lat": 16.296204219116596, "lon": 159.12751102599685, "alt_km": 633.4616631040417, "timestamp": "2025-12-26T06:43:29.792046+00:00", "meta": {"OBJECT_NAME": "FENGYUN 1C DEB", "OBJECT_ID": "1999-025BFP", "EPOCH": "2025-12-24T06:51:36.664992", "MEAN_MOTION": 14.57173956, "ECCENTRICITY": 0.01042029, "INCLINATION": 99.1001, "RA_OF_ASC_NODE": 159.6357, "ARG_OF_PERICENTER": 42.6604, "MEAN_ANOMALY": 318.2624, "EPHEMERIS_TYPE": 0, "CLASSIFICATION_TYPE": "U", "NORAD_CAT_ID": 31069, "ELEMENT_SET_NO": 999, "REV_AT_EPOCH": 98854, "BSTAR": 0.0006394022, "MEAN_MOTION_DOT": 3.049e-05, "MEAN_MOTION_DDOT": 0}, "tle": {"line1": "1 31069U 99025BFP 25358.28584103  .00003049  00000+0  63940-3 0  9998", "line2": "2 31069  99.1001 159.6357 0104202  42.6604 318.2624 14.57173956988546"}}, "geometry": {"type": "Point", "coordinates": [159.12751102599685, 16.296204219116596]}}, {"type": "Feature", "properties": {"norad_id": 31071, "name": "FENGYUN 1C DEB", "group": "fengyun-1c-debris", "lat": -74.0649841627442, "lon": -134.82043176487386, "alt_km": 685.7627026498085, "timestamp": "2025-12-26T06:43:29.792056+00:00", "meta": {"OBJECT_NAME": "FENGYUN 1C DEB", "OBJECT_ID": "1999-025BFR", "EPOCH": "2025-12-23T11:25:25.973184", "MEAN_MOTION": 14.52716038, "ECCENTRICITY": 0.00560363, "INCLINATION": 99.0398, "RA_OF_ASC_NODE": 76.049, "ARG_OF_PERICENTER": 249.166, "MEAN_ANOMALY": 110.3527, "EPHEMERIS_TYPE": 0, "CLASSIFICATION_TYPE": "U", "NORAD_CAT_ID": 31071, "ELEMENT_SET_NO": 999, "REV_AT_EPOCH": 65650, "BSTAR": 0.0011437135, "MEAN_MOTION_DOT": 4.736e-05, "MEAN_MOTION_DDOT": 0}, "tle": {"line1": "1 31071U 99025BFR 25357.47599506  .00004736  00000+0  11437-2 0  9991", "line2": "2 31071  99.0398  76.0490 0056036 249.1660 110.3527 14.52716038656504"}}, "geometry": {"type": "Point", "coordinates": [-134.82043176487386, -74.0649841627442]}}, {"type": "Feature", "properties": {"norad_id": 31072, "name": "FENGYUN 1C DEB", "group": "fengyun-1c-debris", "lat": -54.99867945568571, "lon": 172.95016531656245, "alt_km": 964.5116830775396, "timestamp": "2025-12-26T06:43:29.792066+00:00", "meta": {"OBJECT_NAME": "FENGYUN 1C DEB", "OBJECT_ID": "1999-025BFS", "EPOCH": "2025-12-25T22:53:35.674368", "MEAN_MOTION": 14.25530356, "ECCENTRICITY": 0.02102184, "INCLINATION": 99.3336, "RA_OF_ASC_NODE": 6.1866, "ARG_OF_PERICENTER": 60.1537, "MEAN_ANOMALY": 302.0353, "EPHEMERIS_TYPE": 0, "CLASSIFICATION_TYPE": "U", "NORAD_CAT_ID": 31072, "ELEMENT_SET_NO": 999, "REV_AT_EPOCH": 96831, "BSTAR": 0.00069076776, "MEAN_MOTION_DOT": 2.007e-05, "MEAN_MOTION_DDOT": 0}, "tle": {"line1": "1 31072U 99025BFS 25359.95388512  .00002007  00000+0  69077-3 0  9993", "line2": "2 31072  99.3336   6.1866 0210218  60.1537 302.0353 14.25530356968318"}}, "geometry": {"type": "Point", "coordinates": [172.95016531656245, -54.99867945568571]}}]}